SatCatId,ObjectName,LaunchYear,OrbitalPeriod,LaunchMass,StatusCode,Status,UcsData,OrbitClass,LaunchSiteCountry,Owner,UseType,Purpose,LaunchVehicleClass,TLE1,TLE2
47625,STARLINK-1704,2021,95.59,260.0,+,Active,1,LEO,USA,USA,Commercial,Communications,Falcon,1 47625U 21012F   23021.43023257  .00000483  00000+0  51347-4 0  9992,2 47625  53.0548 163.8941 0001368  93.8341 266.2804 15.06393962107155
47626,STARLINK-1761,2021,95.59,260.0,+,Active,1,LEO,USA,USA,Commercial,Communications,Falcon,1 47626U 21012G   23022.07989731  .00001332  00000+0  10828-3 0  9994,2 47626  53.0543 161.0026 0001117  75.5572 284.5541 15.06400213107250
47627,STARLINK-1972,2021,95.59,260.0,+,Active,1,LEO,USA,USA,Commercial,Communications,Falcon,1 47627U 21012H   23022.15684821  .00003543  00000+0  25660-3 0  9992,2 47627  53.0514  65.6613 0001349  82.7738 277.3404 15.06398812108587
47628,STARLINK-1973,2021,95.59,260.0,+,Active,1,LEO,USA,USA,Commercial,Communications,Falcon,1 47628U 21012J   23021.12060992  .00001250  00000+0  10277-3 0  9997,2 47628  53.0523 165.2930 0001088  83.1508 276.9605 15.06397625107103
47629,STARLINK-1974,2021,95.59,260.0,+,Active,1,LEO,USA,USA,Commercial,Communications,Falcon,1 47629U 21012K   23021.43486725  .00029432  00000+0  19847-2 0  9991,2 47629  53.0512  43.9022 0001678  87.1578 272.9603 15.06434149108830
47630,STARLINK-1983,2021,95.59,260.0,+,Active,1,LEO,USA,USA,Commercial,Communications,Falcon,1 47630U 21012L   23021.12709469  .00002247  00000+0  16968-3 0  9999,2 47630  53.0530 145.3646 0001020  69.5856 290.5243 15.06402193107384
47632,STARLINK-1992,2021,95.59,260.0,+,Active,1,LEO,USA,USA,Commercial,Communications,Falcon,1 47632U 21012N   23022.11535728  .00002487  00000+0  18580-3 0  9994,2 47632  53.0534  65.8315 0001696  83.1518 276.9664 15.06396361108582
47633,STARLINK-2009,2021,95.59,260.0,+,Active,1,LEO,USA,USA,Commercial,Communications,Falcon,1 47633U 21012P   23021.66981715  .00004772  00000+0  33900-3 0  9997,2 47633  53.0532 162.8767 0001162  80.9931 279.1189 15.06405767107196
47634,STARLINK-2010,2021,95.59,260.0,+,Active,1,LEO,USA,USA,Commercial,Communications,Falcon,1 47634U 21012Q   23021.71130738  .00001469  00000+0  11748-3 0  9991,2 47634  53.0521 162.6584 0001263  96.1631 263.9502 15.06398188107196
47635,STARLINK-2012,2021,95.59,260.0,+,Active,1,LEO,USA,USA,Commercial,Communications,Falcon,1 47635U 21012R   23022.13473187  .00005498  00000+0  38769-3 0  9995,2 47635  53.0510  65.7570 0001416  62.9551 297.1583 15.06401513108584
47636,STARLINK-2013,2021,95.59,260.0,+,Active,1,LEO,USA,USA,Commercial,Communications,Falcon,1 47636U 21012S   23021.63205626  .00010911  00000+0  75006-3 0  9992,2 47636  53.0526 143.0166 0001531  73.7096 286.4061 15.06409725107466
47637,STARLINK-2014,2021,95.59,260.0,+,Active,1,LEO,USA,USA,Commercial,Communications,Falcon,1 47637U 21012T   23021.60256543  .00006200  00000+0  43462-3 0  9991,2 47637  53.0532 143.1414 0001235 100.1859 259.9269 15.06413479107460
47638,STARLINK-2015,2021,95.59,260.0,+,Active,1,LEO,USA,USA,Commercial,Communications,Falcon,1 47638U 21012U   23022.13104413  .00009366  00000+0  64662-3 0  9990,2 47638  53.0538  65.7566 0001541  74.1249 285.9910 15.06411631108581
47639,STARLINK-2016,2021,95.59,260.0,+,Active,1,LEO,USA,USA,Commercial,Communications,Falcon,1 47639U 21012V   23021.64679534  .00008446  00000+0  58499-3 0  9996,2 47639  53.0524 142.9487 0001432  79.2166 280.8984 15.06412582107467
47640,STARLINK-2018,2021,95.59,260.0,+,Active,1,LEO,USA,USA,Commercial,Communications,Falcon,1 47640U 21012W   23021.70761434  .00002125  00000+0  16148-3 0  9999,2 47640  53.0544 162.6673 0001064  86.5339 273.5771 15.06406885107193
47641,STARLINK-2019,2021,95.59,260.0,+,Active,1,LEO,USA,USA,Commercial,Communications,Falcon,1 47641U 21012X   23022.11630281  .00012748  00000+0  87298-3 0  9997,2 47641  53.0521  65.8263 0001402  90.7205 269.3945 15.06408528108589
47642,STARLINK-2020,2021,95.59,260.0,+,Active,1,LEO,USA,USA,Commercial,Communications,Falcon,1 47642U 21012Y   23021.38187481  .00002964  00000+0  21782-3 0  9990,2 47642  53.0567 159.1213 0001417  84.5378 275.5772 15.06397800107216
47643,STARLINK-2022,2021,95.59,260.0,+,Active,1,LEO,USA,USA,Commercial,Communications,Falcon,1 47643U 21012Z   23021.06442634 -.00000138  00000+0  96761-5 0  9993,2 47643  53.0537 145.5561 0001807  80.5679 279.5515 15.06398011107373
47644,STARLINK-2026,2021,95.59,260.0,+,Active,1,LEO,USA,USA,Commercial,Communications,Falcon,1 47644U 21012AA  23021.67444526  .00004222  00000+0  30208-3 0  9992,2 47644  53.0533 162.8177 0001238  90.1632 269.9499 15.06405631107190
47645,STARLINK-2027,2021,95.59,260.0,+,Active,1,LEO,USA,USA,Commercial,Communications,Falcon,1 47645U 21012AB  23021.69566726  .00012764  00000+0  87383-3 0  9998,2 47645  53.0522 132.9697 0001248  66.9447 293.1673 15.06416010107602
47646,STARLINK-2028,2021,95.59,260.0,+,Active,1,LEO,USA,USA,Commercial,Communications,Falcon,1 47646U 21012AC  23022.08039210  .00005040  00000+0  35696-3 0  9995,2 47646  53.0534  96.2344 0001244  92.5591 267.5540 15.06403615108154
47647,STARLINK-2030,2021,95.59,260.0,+,Active,1,LEO,USA,USA,Commercial,Communications,Falcon,1 47647U 21012AD  23022.08358514  .00001989  00000+0  15238-3 0  9995,2 47647  53.0518 160.9820 0001224  83.3420 276.7708 15.06399936107250
47648,STARLINK-2031,2021,95.59,260.0,+,Active,1,LEO,USA,USA,Commercial,Communications,Falcon,1 47648U 21012AE  23021.47725118  .00001116  00000+0  93794-4 0  9992,2 47648  53.0540 143.7021 0001503  84.6575 275.4585 15.06393822107441
47649,STARLINK-2032,2021,95.59,260.0,+,Active,1,LEO,USA,USA,Commercial,Communications,Falcon,1 47649U 21012AF  23021.61362382  .00006923  00000+0  48302-3 0  9994,2 47649  53.0526 143.0975 0001014  87.7276 272.3829 15.06412211107469
47650,STARLINK-2033,2021,95.59,260.0,+,Active,1,LEO,USA,USA,Commercial,Communications,Falcon,1 47650U 21012AG  23021.59888170  .00007832  00000+0  54398-3 0  9993,2 47650  53.0525 143.1639 0001132  78.3553 281.7563 15.06407356107455
47651,STARLINK-2035,2021,95.59,260.0,+,Active,1,LEO,USA,USA,Commercial,Communications,Falcon,1 47651U 21012AH  23021.70393795  .00001476  00000+0  11794-3 0  9992,2 47651  53.0536 162.7318 0001292 111.6321 248.4806 15.06400276107195
47652,STARLINK-2036,2021,95.59,260.0,+,Active,1,LEO,USA,USA,Commercial,Communications,Falcon,1 47652U 21012AJ  23021.39431668  .00002272  00000+0  17140-3 0  9996,2 47652  53.0543 164.0725 0001146  98.6614 261.4505 15.06396371107144
47653,STARLINK-2037,2021,95.59,260.0,+,Active,1,LEO,USA,USA,Commercial,Communications,Falcon,1 47653U 21012AK  23021.65417425  .00003517  00000+0  25486-3 0  9996,2 47653  53.0530 142.9181 0001286  89.8360 270.2776 15.06403861107463
47654,STARLINK-2038,2021,95.59,260.0,+,Active,1,LEO,USA,USA,Commercial,Communications,Falcon,1 47654U 21012AL  23021.66338426  .00001179  00000+0  98047-4 0  9997,2 47654  53.0531 162.8662 0001325  87.9388 272.1753 15.06404339107189
47655,STARLINK-2039,2021,95.59,260.0,+,Active,1,LEO,USA,USA,Commercial,Communications,Falcon,1 47655U 21012AM  23021.39063314  .00003118  00000+0  22813-3 0  9991,2 47655  53.0542 164.0969 0001246  60.9232 299.1881 15.06396045107148
47656,STARLINK-2040,2021,95.59,260.0,+,Active,1,LEO,USA,USA,Commercial,Communications,Falcon,1 47656U 21012AN  23021.07548035  .00001157  00000+0  96549-4 0  9994,2 47656  53.0532 145.5098 0001448  88.2780 271.8375 15.06404748107370
47657,STARLINK-2041,2021,95.59,260.0,+,Active,1,LEO,USA,USA,Commercial,Communications,Falcon,1 47657U 21012AP  23021.67812884  .00003263  00000+0  23782-3 0  9995,2 47657  53.0537 162.8028 0001096  94.0197 266.0917 15.06402975107195
47658,STARLINK-2042,2021,95.59,260.0,+,Active,1,LEO,USA,USA,Commercial,Communications,Falcon,1 47658U 21012AQ  23021.40537544  .00001076  00000+0  91124-4 0  9990,2 47658  53.0548 164.0311 0001448  74.6050 285.5099 15.06398728107153
47659,STARLINK-2043,2021,95.59,260.0,+,Active,1,LEO,USA,USA,Commercial,Communications,Falcon,1 47659U 21012AR  23021.49752624  .00033189  00000+0  22358-2 0  9999,2 47659  53.0534  43.6104 0001600  90.3214 269.7958 15.06412435108834
47660,STARLINK-2044,2021,95.59,260.0,+,Active,1,LEO,USA,USA,Commercial,Communications,Falcon,1 47660U 21012AS  23021.71599423  .00011279  00000+0  77470-3 0  9994,2 47660  53.0540  33.2484 0001589  70.7426 289.3735 15.06409011109009
47661,STARLINK-2051,2021,95.59,260.0,+,Active,1,LEO,USA,USA,Commercial,Communications,Falcon,1 47661U 21012AT  23021.37035145  .00001235  00000+0  10176-3 0  9994,2 47661  53.0547 144.1889 0002168 111.8615 248.2604 15.06410045107421
47662,STARLINK-2052,2021,95.59,260.0,+,Active,1,LEO,USA,USA,Commercial,Communications,Falcon,1 47662U 21012AU  23021.48367445  .00018583  00000+0  12626-2 0  9993,2 47662  53.0527 143.6768 0001184  58.3852 301.7252 15.06415943107443
47663,STARLINK-2053,2021,95.59,260.0,+,Active,1,LEO,USA,USA,Commercial,Communications,Falcon,1 47663U 21012AV  23021.14924045  .00000185  00000+0  31309-4 0  9992,2 47663  53.0556  65.4909 0001163  93.3517 266.7605 15.06398829108501
47664,STARLINK-2054,2021,95.59,260.0,+,Active,1,LEO,USA,USA,Commercial,Communications,Falcon,1 47664U 21012AW  23021.48461832  .00004680  00000+0  33277-3 0  9999,2 47664  53.0522 143.6691 0001158  79.1915 280.9204 15.06407220107441
47665,STARLINK-2056,2021,95.59,260.0,+,Active,1,LEO,USA,USA,Commercial,Communications,Falcon,1 47665U 21012AX  23021.06673234  .00002887  00000+0  21262-3 0  9993,2 47665  53.0522 140.6037 0001306  85.9292 274.1846 15.06404766107440
47666,STARLINK-2057,2021,95.59,260.0,+,Active,1,LEO,USA,USA,Commercial,Communications,Falcon,1 47666U 21012AY  23021.52750853  .00009918  00000+0  68347-3 0  9995,2 47666  53.0541 138.8352 0001191  94.4985 265.6140 15.06416505107511
47667,STARLINK-2058,2021,95.59,260.0,+,Active,1,LEO,USA,USA,Commercial,Communications,Falcon,1 47667U 21012AZ  23021.11786956  .00000978  00000+0  84564-4 0  9991,2 47667  53.0529 165.3205 0001389  86.4240 273.6908 15.06399427107103
